{"type": "FeatureCollection", "features": [ {"type": "Feature", "properties": {"norad_id": 44476, "name": "INTELSAT 39 (IS-39)", "group": "intelsat", "lat": -0.034899928672656545, "lon": -94.27455637352587, "alt_km": 35789.29570787398, "timestamp": "2025-12-21T07:34:34.208136+00:00", "meta": {"OBJECT_NAME": "INTELSAT 39 (IS-39)", "OBJECT_ID": "2019-049B", "EPOCH": "2025-12-20T22:05:08.640096", "MEAN_MOTION": 1.00270587, "ECCENTRICITY": 0.00010345, "INCLINATION": 0.0091, "RA_OF_ASC_NODE": 14.3448, "ARG_OF_PERICENTER": 120.0209, "MEAN_ANOMALY": 348.6148, "EPHEMERIS_TYPE": 0, "CLASSIFICATION_TYPE": "U", "NORAD_CAT_ID": 44476, "ELEMENT_SET_NO": 999, "REV_AT_EPOCH": 2334, "BSTAR": 0, "MEAN_MOTION_DOT": 5.7e-07, "MEAN_MOTION_DDOT": 0}, "tle": {"line1": "1 44476U 19049B   25354.92023889  .00000057  00000+0  00000+0 0  9998", "line2": "2 44476   0.0091  14.3448 0001034 120.0209 348.6148  1.00270587 23349"}}, "geometry": {"type": "Point", "coordinates": [-94.27455637352587, -0.034899928672656545]}}, {"type": "Feature", "properties": {"norad_id": 46114, "name": "GALAXY 30 (G-30)", "group": "intelsat", "lat": 0.0441417762695587, "lon": 78.79822548197237, "alt_km": 35794.04012762309, "timestamp": "2025-12-21T07:34:34.208146+00:00", "meta": {"OBJECT_NAME": "GALAXY 30 (G-30)", "OBJECT_ID": "2020-056C", "EPOCH": "2025-12-20T16:03:37.347264", "MEAN_MOTION": 1.0027331, "ECCENTRICITY": 0.00020343, "INCLINATION": 0.0182, "RA_OF_ASC_NODE": 345.3857, "ARG_OF_PERICENTER": 285.3913, "MEAN_ANOMALY": 294.6471, "EPHEMERIS_TYPE": 0, "CLASSIFICATION_TYPE": "U", "NORAD_CAT_ID": 46114, "ELEMENT_SET_NO": 999, "REV_AT_EPOCH": 1950, "BSTAR": 0, "MEAN_MOTION_DOT": 6e-07, "MEAN_MOTION_DDOT": 0}, "tle": {"line1": "1 46114U 20056C   25354.66918226  .00000060  00000+0  00000+0 0  9992", "line2": "2 46114   0.0182 345.3857 0002034 285.3913 294.6471  1.00273310 19509"}}, "geometry": {"type": "Point", "coordinates": [78.79822548197237, 0.0441417762695587]}}, {"type": "Feature", "properties": {"norad_id": 54026, "name": "GALAXY 33 (G-33)", "group": "intelsat", "lat": 0.026455697865247877, "lon": 70.77746553662541, "alt_km": 35792.38012807824, "timestamp": "2025-12-21T07:34:34.208157+00:00", "meta": {"OBJECT_NAME": "GALAXY 33 (G-33)", "OBJECT_ID": "2022-128A", "EPOCH": "2025-12-20T17:44:03.645312", "MEAN_MOTION": 1.00271333, "ECCENTRICITY": 0.00015502, "INCLINATION": 0.0167, "RA_OF_ASC_NODE": 44.0159, "ARG_OF_PERICENTER": 225.3715, "MEAN_ANOMALY": 313.1978, "EPHEMERIS_TYPE": 0, "CLASSIFICATION_TYPE": "U", "NORAD_CAT_ID": 54026, "ELEMENT_SET_NO": 999, "REV_AT_EPOCH": 1195, "BSTAR": 0, "MEAN_MOTION_DOT": 1.02e-06, "MEAN_MOTION_DDOT": 0}, "tle": {"line1": "1 54026U 22128A   25354.73893108  .00000102  00000+0  00000+0 0  9991", "line2": "2 54026   0.0167  44.0159 0001550 225.3715 313.1978  1.00271333 11950"}}, "geometry": {"type": "Point", "coordinates": [70.77746553662541, 0.026455697865247877]}}, {"type": "Feature", "properties": {"norad_id": 54027, "name": "GALAXY 34 (G-34)", "group": "intelsat", "lat": 0.04627242526420396, "lon": 74.82023200984838, "alt_km": 35794.4261028271, "timestamp": "2025-12-21T07:34:34.208167+00:00", "meta": {"OBJECT_NAME": "GALAXY 34 (G-34)", "OBJECT_ID": "2022-128B", "EPOCH": "2025-12-20T16:02:29.955264", "MEAN_MOTION": 1.0026794, "ECCENTRICITY": 0.00017422, "INCLINATION": 0.0233, "RA_OF_ASC_NODE": 12.1424, "ARG_OF_PERICENTER": 249.9166, "MEAN_ANOMALY": 299.1202, "EPHEMERIS_TYPE": 0, "CLASSIFICATION_TYPE": "U", "NORAD_CAT_ID": 54027, "ELEMENT_SET_NO": 999, "REV_AT_EPOCH": 1212, "BSTAR": 0, "MEAN_MOTION_DOT": 0, "MEAN_MOTION_DDOT": 0}, "tle": {"line1": "1 54027U 22128B   25354.66840226  .00000000  00000+0  00000+0 0  9994", "line2": "2 54027   0.0233  12.1424 0001742 249.9166 299.1202  1.00267940 12123"}}, "geometry": {"type": "Point", "coordinates": [74.82023200984838, 0.04627242526420396]}}, {"type": "Feature", "properties": {"norad_id": 54243, "name": "GALAXY 31 (G-31)", "group": "intelsat", "lat": 0.01705928727714468, "lon": 82.77485802336632, "alt_km": 35791.8213674932, "timestamp": "2025-12-21T07:34:34.208177+00:00", "meta": {"OBJECT_NAME": "GALAXY 31 (G-31)", "OBJECT_ID": "2022-153A", "EPOCH": "2025-12-20T16:04:44.740128", "MEAN_MOTION": 1.0027114, "ECCENTRICITY": 0.00013728, "INCLINATION": 0.0199, "RA_OF_ASC_NODE": 83.2209, "ARG_OF_PERICENTER": 195.4241, "MEAN_ANOMALY": 291.0428, "EPHEMERIS_TYPE": 0, "CLASSIFICATION_TYPE": "U", "NORAD_CAT_ID": 54243, "ELEMENT_SET_NO": 999, "REV_AT_EPOCH": 534, "BSTAR": 0, "MEAN_MOTION_DOT": 3.7e-07, "MEAN_MOTION_DDOT": 0}, "tle": {"line1": "1 54243U 22153A   25354.66996227  .00000037  00000+0  00000+0 0  9995", "line2": "2 54243   0.0199  83.2209 0001372 195.4241 291.0428  1.00271140  5346"}}, "geometry": {"type": "Point", "coordinates": [82.77485802336632, 0.01705928727714468]}}, {"type": "Feature", "properties": {"norad_id": 54244, "name": "GALAXY 32 (G-32)", "group": "intelsat", "lat": 0.037675654921083115, "lon": 112.78425027802452, "alt_km": 35793.67863064029, "timestamp": "2025-12-21T07:34:34.208188+00:00", "meta": {"OBJECT_NAME": "GALAXY 32 (G-32)", "OBJECT_ID": "2022-153B", "EPOCH": "2025-12-20T11:05:05.937792", "MEAN_MOTION": 1.00271078, "ECCENTRICITY": 0.00019462, "INCLINATION": 0.012, "RA_OF_ASC_NODE": 19.5385, "ARG_OF_PERICENTER": 299.6546, "MEAN_ANOMALY": 205.3828, "EPHEMERIS_TYPE": 0, "CLASSIFICATION_TYPE": "U", "NORAD_CAT_ID": 54244, "ELEMENT_SET_NO": 999, "REV_AT_EPOCH": 1135, "BSTAR": 0, "MEAN_MOTION_DOT": -1.51e-06, "MEAN_MOTION_DDOT": 0}, "tle": {"line1": "1 54244U 22153B   25354.46187428 -.00000151  00000+0  00000+0 0  9997", "line2": "2 54244   0.0120  19.5385 0001946 299.6546 205.3828  1.00271078 11350"}}, "geometry": {"type": "Point", "coordinates": [112.78425027802452, 0.037675654921083115]}}, {"type": "Feature", "properties": {"norad_id": 54741, "name": "GALAXY 35 (G-35)", "group": "intelsat", "lat": 0.03162688208435602, "lon": 110.67086381115345, "alt_km": 35794.65676599833, "timestamp": "2025-12-21T07:34:34.208198+00:00", "meta": {"OBJECT_NAME": "GALAXY 35 (G-35)", "OBJECT_ID": "2022-170A", "EPOCH": "2025-12-20T14:29:53.824416", "MEAN_MOTION": 1.00272181, "ECCENTRICITY": 0.00021493, "INCLINATION": 0.0141, "RA_OF_ASC_NODE": 52.9808, "ARG_OF_PERICENTER": 219.5945, "MEAN_ANOMALY": 301.2412, "EPHEMERIS_TYPE": 0, "CLASSIFICATION_TYPE": "U", "NORAD_CAT_ID": 54741, "ELEMENT_SET_NO": 999, "REV_AT_EPOCH": 1110, "BSTAR": 0, "MEAN_MOTION_DOT": -1.39e-06, "MEAN_MOTION_DDOT": 0}, "tle": {"line1": "1 54741U 22170A   25354.60409519 -.00000139  00000+0  00000+0 0  9998", "line2": "2 54741   0.0141  52.9808 0002149 219.5945 301.2412  1.00272181 11100"}}, "geometry": {"type": "Point", "coordinates": [110.67086381115345, 0.03162688208435602]}}, {"type": "Feature", "properties": {"norad_id": 54742, "name": "GALAXY 36 (G-36)", "group": "intelsat", "lat": 0.039415547902940946, "lon": 114.7665268646891, "alt_km": 35787.712141450196, "timestamp": "2025-12-21T07:34:34.208208+00:00", "meta": {"OBJECT_NAME": "GALAXY 36 (G-36)", "OBJECT_ID": "2022-170B", "EPOCH": "2025-12-20T19:39:07.624800", "MEAN_MOTION": 1.00269339, "ECCENTRICITY": 4.177e-05, "INCLINATION": 0.0145, "RA_OF_ASC_NODE": 21.7505, "ARG_OF_PERICENTER": 331.3461, "MEAN_ANOMALY": 302.3284, "EPHEMERIS_TYPE": 0, "CLASSIFICATION_TYPE": "U", "NORAD_CAT_ID": 54742, "ELEMENT_SET_NO": 999, "REV_AT_EPOCH": 1098, "BSTAR": 0, "MEAN_MOTION_DOT": 0, "MEAN_MOTION_DDOT": 0}, "tle": {"line1": "1 54742U 22170B   25354.81883825  .00000000  00000+0  00000+0 0  9994", "line2": "2 54742   0.0145  21.7505 0000417 331.3461 302.3284  1.00269339 10980"}}, "geometry": {"type": "Point", "coordinates": [114.7665268646891, 0.039415547902940946]}}, {"type": "Feature", "properties": {"norad_id": 57493, "name": "GALAXY 37 (G-37)", "group": "intelsat", "lat": 0.04035042359032997, "lon": 76.7705416886335, "alt_km": 35794.14425034371, "timestamp": "2025-12-21T07:34:34.208219+00:00", "meta": {"OBJECT_NAME": "GALAXY 37 (G-37)", "OBJECT_ID": "2023-112A", "EPOCH": "2025-12-20T16:02:59.906688", "MEAN_MOTION": 1.00270939, "ECCENTRICITY": 0.00019261, "INCLINATION": 0.0145, "RA_OF_ASC_NODE": 3.2733, "ARG_OF_PERICENTER": 268.7416, "MEAN_ANOMALY": 291.2295, "EPHEMERIS_TYPE": 0, "CLASSIFICATION_TYPE": "U", "NORAD_CAT_ID": 57493, "ELEMENT_SET_NO": 999, "REV_AT_EPOCH": 875, "BSTAR": 0, "MEAN_MOTION_DOT": 7.2e-07, "MEAN_MOTION_DDOT": 0}, "tle": {"line1": "1 57493U 23112A   25354.66874892  .00000072  00000+0  00000+0 0  9993", "line2": "2 57493   0.0145   3.2733 0001926 268.7416 291.2295  1.00270939  8751"}}, "geometry": {"type": "Point", "coordinates": [76.7705416886335, 0.04035042359032997]}}]}